STARLINK-4211           
1 52873U 22062AV  24292.95284279  .00002466  00000+0  17297-3 0  9998
2 52873  53.2128 128.9505 0001562  83.1122 277.0048 15.08842989130050
STARLINK-4210           
1 52874U 22062AW  24292.89764079  .00002121  00000+0  15128-3 0  9992
2 52874  53.2150 129.1960 0001497  95.9850 264.1312 15.08841939129558
STARLINK-4193           
1 52875U 22062AX  24292.94916279  .00001209  00000+0  94047-4 0  9994
2 52875  53.2140 128.9658 0001406  91.8135 268.3018 15.08839594130050
STARLINK-4200           
1 52876U 22062AY  24292.95651783  .00001835  00000+0  13330-3 0  9992
2 52876  53.2154 128.9326 0001497  92.4094 267.7070 15.08848596130052
STARLINK-4214           
1 52877U 22062AZ  24292.92340757  .00000779  00000+0  67042-4 0  9992
2 52877  53.2149 129.0884 0001629  82.4779 277.6398 15.08835558129565
STARLINK-4171           
1 52878U 22062BA  24292.94548032  .00003465  00000+0  23563-3 0  9995
2 52878  53.2139 128.9817 0001196  93.5690 266.5439 15.08843926130050
STARLINK-4139           
1 52879U 22062BB  24292.97859346  .00001928  00000+0  13918-3 0  9997
2 52879  53.2139 128.8327 0001507  88.0044 272.1120 15.08849076130067
STARLINK-4186           
1 52880U 22062BC  24292.84980618  .00000887  00000+0  73841-4 0  9997
2 52880  53.2146 129.4109 0001765  90.4594 269.6600 15.08833670130040
STARLINK-4181           
1 52882U 22062BE  24293.26558846  .00004091  00000+0  27493-3 0  9992
2 52882  53.2140 127.1198 0001546  85.1598 274.9571 15.08845490130118
STARLINK-4260           
1 52986U 22076A   24293.04116068  .00011747  00000+0  75446-3 0  9991
2 52986  53.2158 208.5536 0001490 103.1809 256.9349 15.08862388126827
STARLINK-4259           
1 52987U 22076B   24293.08072304  .00014830  00000+0  94749-3 0  9993
2 52987  53.2170 218.3732 0001512  94.9219 265.1946 15.08856307126690
STARLINK-4291           
1 52988U 22076C   24292.50755903 -.00001187  00000+0 -56515-4 0  9996
2 52988  53.2186 210.9447 0001564 101.1219 258.9949 15.08843714126272
STARLINK-4293           
1 52989U 22076D   24293.07704202  .00004537  00000+0  30293-3 0  9990
2 52989  53.2184 218.3919 0001687 103.0206 257.0975 15.08844121126698
STARLINK-4286           
1 52990U 22076E   24293.07335867  .00002749  00000+0  19070-3 0  9992
2 52990  53.2157 218.4053 0001350  93.2296 266.8850 15.08847846126693
STARLINK-4285           
1 52991U 22076F   24292.53975791  .00008044  00000+0  52273-3 0  9995
2 52991  53.2164 220.8039 0001467  95.0518 265.0641 15.08852575126143
STARLINK-4269           
1 52992U 22076G   24293.06696042  .00003524  00000+0  23937-3 0  9997
2 52992  53.2164 218.4491 0001405  98.5884 261.5268 15.08847304126695
STARLINK-4264           
1 52993U 22076H   24293.16627682  .00002996  00000+0  20618-3 0  9998
2 52993  53.2178 207.9904 0001544  87.4964 272.6205 15.08849861126844
STARLINK-4256           
1 52994U 22076J   24293.16259616 -.00000145  00000+0  89739-5 0  9993
2 52994  53.2177 208.0044 0001416  82.0911 278.0242 15.08833810126840
STARLINK-4296           
1 52995U 22076K   24293.15523653  .00007697  00000+0  50092-3 0  9994
2 52995  53.2155 208.0421 0001332  89.9955 270.1190 15.08856181126848
STARLINK-4295           
1 52996U 22076L   24293.18566701  .00006353  00000+0  41673-3 0  9992
2 52996  53.2183 208.1824 0001584  95.7878 264.3295 15.08853519126849
STARLINK-4301           
1 52997U 22076M   24293.58334491  .00162752  00000+0  22591-2 0  9999
2 52997  53.2340 128.5474 0007408 129.1240 233.9431 15.55970974128031
STARLINK-4254           
1 52998U 22076N   24293.14419170  .00001787  00000+0  13031-3 0  9990
2 52998  53.2177 208.0074 0001690 105.8489 254.2690 15.08843400126844
STARLINK-4217           
1 52999U 22076P   24293.13683757  .00000586  00000+0  54891-4 0  9990
2 52999  53.2183 208.1244 0001546  81.5816 278.5352 15.08849612126841
STARLINK-4194           
1 53000U 22076Q   24293.15155580  .00003555  00000+0  24125-3 0  9999
2 53000  53.2175 208.0548 0001728  77.4154 282.7032 15.08859143126845
STARLINK-4190           
1 53001U 22076R   24292.80196412 -.00001129  00000+0 -52838-4 0  9990
2 53001  53.2179 209.6288 0001457  96.2415 263.8743 15.08832690126326
STARLINK-4121           
1 53002U 22076S   24293.14787293  .00003298  00000+0  22518-3 0  9990
2 53002  53.2166 208.0745 0001429  93.7381 266.3775 15.08849339126845
STARLINK-4255           
1 53003U 22076T   24293.05955923  .00003758  00000+0  25409-3 0  9991
2 53003  53.2173 208.4663 0001264  97.3673 262.7463 15.08835326126832
STARLINK-4253           
1 53004U 22076U   24293.07427167  .00006067  00000+0  39877-3 0  9998
2 53004  53.2158 208.4042 0001407  95.8878 264.2275 15.08859121126833
STARLINK-4288           
1 53005U 22076V   24292.19475900  .00000985  00000+0  79964-4 0  9994
2 53005  53.2171 212.3451 0001515 107.6676 252.4482 15.08846335126231
STARLINK-4290           
1 53006U 22076W   24293.06323908  .00002327  00000+0  16423-3 0  9994
2 53006  53.2157 208.4503 0001270  88.2353 271.8785 15.08844893126838
STARLINK-4215           
1 53007U 22076X   24293.18100245  .00011821  00000+0  75932-3 0  9994
2 53007  53.2169 207.9233 0001473 101.7141 258.4016 15.08851240126851
STARLINK-4275           
1 53008U 22076Y   24293.18467411  .00008307  00000+0  53912-3 0  9995
2 53008  53.2148 207.8939 0001360 101.7112 258.4033 15.08858297126852
STARLINK-4277           
1 53009U 22076Z   24293.43216284 -.00000660  00000+0 -23374-4 0  9990
2 53009  53.2175 196.7956 0001096  98.3010 261.8107 15.08835198127027
STARLINK-4263           
1 53010U 22076AA  24293.09264690  .00006310  00000+0  41410-3 0  9994
2 53010  53.2175 208.0512 0001468  76.0133 284.1023 15.08850152126847
STARLINK-4265           
1 53011U 22076AB  24293.16352435  .00015448  00000+0  98617-3 0  9991
2 53011  53.2169 198.0031 0001336  80.4962 279.6181 15.08854635126987
STARLINK-4271           
1 53012U 22076AC  24292.51491568 -.00000879  00000+0 -37146-4 0  9996
2 53012  53.2165 210.9152 0001448  89.8747 270.2411 15.08847833126288
STARLINK-4177           
1 53013U 22076AD  24292.16255741  .00000871  00000+0  72820-4 0  9997
2 53013  53.2156 202.4978 0001145 104.7040 255.4079 15.08845602126836
STARLINK-4183           
1 53014U 22076AE  24292.44224108  .00003774  00000+0  25500-3 0  9999
2 53014  53.2160 201.2425 0001345  85.9587 274.1559 15.08848327126405
STARLINK-4262           
1 53015U 22076AF  24293.14880232  .00012589  00000+0  80733-3 0  9997
2 53015  53.2176 198.0701 0001813 102.1915 257.9280 15.08855675126987
STARLINK-4283           
1 53016U 22076AG  24292.16623814 -.00000053  00000+0  14786-4 0  9990
2 53016  53.2183 202.4785 0001347  96.8872 263.2273 15.08848003126362
STARLINK-4281           
1 53017U 22076AH  24293.14512261  .00010468  00000+0  67462-3 0  9991
2 53017  53.2170 198.0860 0001635  98.6784 261.4393 15.08851873126985
STARLINK-4279           
1 53018U 22076AJ  24293.11571355  .00014051  00000+0  89869-3 0  9995
2 53018  53.2148 198.4769 0001399  98.1063 262.0088 15.08859516126974
STARLINK-4282           
1 53019U 22076AK  24293.13775930  .00006119  00000+0  40209-3 0  9994
2 53019  53.2168 198.1168 0001453  97.0057 263.1101 15.08853114126986
STARLINK-4287           
1 53020U 22076AL  24293.15247625  .00005335  00000+0  35285-3 0  9990
2 53020  53.2161 198.0514 0001593  98.3096 261.8077 15.08856935126988
STARLINK-4203           
1 53021U 22076AM  24293.13041285 -.00000060  00000+0  14325-4 0  9997
2 53021  53.2176 198.1498 0001412  93.1221 266.9933 15.08829487126989
STARLINK-4216           
1 53022U 22076AN  24293.14144179  .00019740  00000+0  12538-2 0  9991
2 53022  53.2166 198.1041 0001431  96.7114 263.4041 15.08871433126984
STARLINK-4284           
1 53023U 22076AP  24293.12303434  .00005510  00000+0  36384-3 0  9997
2 53023  53.2162 198.1754 0001123  86.2586 273.8535 15.08857443126985
STARLINK-4289           
1 53024U 22076AQ  24293.12671968  .00004305  00000+0  28831-3 0  9997
2 53024  53.2148 198.1702 0001450  87.3558 272.7600 15.08850724126983
STARLINK-4218           
1 53025U 22076AR  24293.11936041  .00006257  00000+0  41075-3 0  9996
2 53025  53.2155 198.2036 0001608  83.1289 276.9886 15.08850717126987
STARLINK-4119           
1 53026U 22076AS  24293.12398683  .00012655  00000+0  81142-3 0  9990
2 53026  53.2143 198.0771 0001524  88.6169 271.4998 15.08855190126987
STARLINK-4158           
1 53027U 22076AT  24293.17456538  .00003303  00000+0  22550-3 0  9998
2 53027  53.2165 197.9526 0001695  95.7709 264.3476 15.08839332126999
STARLINK-4143           
1 53029U 22076AV  24293.42572251  .00003813  00000+0  25748-3 0  9997
2 53029  53.2175 186.8265 0001583  88.3623 271.7551 15.08848741127168
STARLINK-4160           
1 53030U 22076AW  24293.13409735  .00002354  00000+0  16586-3 0  9992
2 53030  53.2165 198.3271 0001308  93.9041 266.2100 15.08857160126988
STARLINK-4137           
1 53031U 22076AX  24293.08348323  .00008657  00000+0  56120-3 0  9992
2 53031  53.2160 188.3608 0001472  88.5771 271.5390 15.08849974127119
STARLINK-4115           
1 53032U 22076AY  24293.04575815  .00001857  00000+0  13473-3 0  9996
2 53032  53.2165 198.5297 0001245  81.0099 279.1034 15.08846867126971
STARLINK-4167           
1 53033U 22076AZ  24293.08716344  .00002940  00000+0  20268-3 0  9999
2 53033  53.2156 188.3462 0001356  89.6645 270.4503 15.08843819127113
STARLINK-4151           
1 53034U 22076BA  24293.42668572 -.00001716  00000+0 -89733-4 0  9992
2 53034  53.2165 186.8685 0001818  82.8424 277.2775 15.08832403127154
STARLINK-4157           
1 53035U 22076BB  24293.41099921  .00015177  00000+0  96886-3 0  9998
2 53035  53.2168 186.8916 0001368  89.0932 271.0217 15.08868354127155
STARLINK-4155           
1 53036U 22076BC  24293.14236491  .00007973  00000+0  51834-3 0  9993
2 53036  53.2162 188.0962 0001343  76.0887 284.0255 15.08846861127114
